[{"OBJECT_NAME":"ONEWEB-0170","OBJECT_ID":"2021-025AB","EPOCH":"2026-02-15T06:33:01.411200","MEAN_MOTION":13.1347109,"ECCENTRICITY":0.00013777,"INCLINATION":87.9041,"RA_OF_ASC_NODE":344.4595,"ARG_OF_PERICENTER":85.2381,"MEAN_ANOMALY":274.8905,"EPHEMERIS_TYPE":0,"CLASSIFICATION_TYPE":"U","NORAD_CAT_ID":48067,"ELEMENT_SET_NO":999,"REV_AT_EPOCH":23754,"BSTAR":0.00090894646,"MEAN_MOTION_DOT":3.45e-6,"MEAN_MOTION_DDOT":0},{"OBJECT_NAME":"ONEWEB-0168","OBJECT_ID":"2021-025AC","EPOCH":"2026-02-15T06:11:04.530912","MEAN_MOTION":13.13473045,"ECCENTRICITY":0.00019629,"INCLINATION":87.9049,"RA_OF_ASC_NODE":344.4519,"ARG_OF_PERICENTER":82.4999,"MEAN_ANOMALY":277.6353,"EPHEMERIS_TYPE":0,"CLASSIFICATION_TYPE":"U","NORAD_CAT_ID":48068,"ELEMENT_SET_NO":999,"REV_AT_EPOCH":23755,"BSTAR":0.00044847126,"MEAN_MOTION_DOT":1.77e-6,"MEAN_MOTION_DDOT":0},{"OBJECT_NAME":"ONEWEB-0173","OBJECT_ID":"2021-025AD","EPOCH":"2026-02-15T05:58:54.724800","MEAN_MOTION":13.1347091,"ECCENTRICITY":0.00020413,"INCLINATION":87.9042,"RA_OF_ASC_NODE":344.4615,"ARG_OF_PERICENTER":89.1298,"MEAN_ANOMALY":271.0065,"EPHEMERIS_TYPE":0,"CLASSIFICATION_TYPE":"U","NORAD_CAT_ID":48069,"ELEMENT_SET_NO":999,"REV_AT_EPOCH":23779,"BSTAR":-0.0002518792,"MEAN_MOTION_DOT":-7.9e-7,"MEAN_MOTION_DDOT":0},{"OBJECT_NAME":"ONEWEB-0171","OBJECT_ID":"2021-025AE","EPOCH":"2026-02-15T05:02:50.655264","MEAN_MOTION":13.13469843,"ECCENTRICITY":0.00017907,"INCLINATION":87.9038,"RA_OF_ASC_NODE":344.4828,"ARG_OF_PERICENTER":81.5813,"MEAN_ANOMALY":278.5519,"EPHEMERIS_TYPE":0,"CLASSIFICATION_TYPE":"U","NORAD_CAT_ID":48070,"ELEMENT_SET_NO":999,"REV_AT_EPOCH":23760,"BSTAR":0.0005396661,"MEAN_MOTION_DOT":2.1e-6,"MEAN_MOTION_DDOT":0},{"OBJECT_NAME":"ONEWEB-0172","OBJECT_ID":"2021-025AF","EPOCH":"2026-02-15T06:23:16.892736","MEAN_MOTION":13.13471959,"ECCENTRICITY":0.00017945,"INCLINATION":87.9039,"RA_OF_ASC_NODE":344.459,"ARG_OF_PERICENTER":84.6924,"MEAN_ANOMALY":275.441,"EPHEMERIS_TYPE":0,"CLASSIFICATION_TYPE":"U","NORAD_CAT_ID":48071,"ELEMENT_SET_NO":999,"REV_AT_EPOCH":23850,"BSTAR":0.00094779824,"MEAN_MOTION_DOT":3.59e-6,"MEAN_MOTION_DDOT":0},{"OBJECT_NAME":"ONEWEB-0174","OBJECT_ID":"2021-025AG","EPOCH":"2026-02-15T05:56:28.023648","MEAN_MOTION":13.13471329,"ECCENTRICITY":0.00019774,"INCLINATION":87.9034,"RA_OF_ASC_NODE":344.4644,"ARG_OF_PERICENTER":78.4289,"MEAN_ANOMALY":281.7062,"EPHEMERIS_TYPE":0,"CLASSIFICATION_TYPE":"U","NORAD_CAT_ID":48072,"ELEMENT_SET_NO":999,"REV_AT_EPOCH":23782,"BSTAR":-0.00034920582,"MEAN_MOTION_DOT":-1.15e-6,"MEAN_MOTION_DDOT":0},{"OBJECT_NAME":"ONEWEB-0175","OBJECT_ID":"2021-025AH","EPOCH":"2026-02-15T06:40:20.644608","MEAN_MOTION":13.13471426,"ECCENTRICITY":0.00015987,"INCLINATION":87.9046,"RA_OF_ASC_NODE":344.4319,"ARG_OF_PERICENTER":89.4444,"MEAN_ANOMALY":270.6868,"EPHEMERIS_TYPE":0,"CLASSIFICATION_TYPE":"U","NORAD_CAT_ID":48073,"ELEMENT_SET_NO":999,"REV_AT_EPOCH":23748,"BSTAR":0.00092174815,"MEAN_MOTION_DOT":3.49e-6,"MEAN_MOTION_DDOT":0},{"OBJECT_NAME":"ONEWEB-0177","OBJECT_ID":"2021-025AJ","EPOCH":"2026-02-15T05:07:42.875616","MEAN_MOTION":13.13470968,"ECCENTRICITY":0.00020111,"INCLINATION":87.9048,"RA_OF_ASC_NODE":344.4652,"ARG_OF_PERICENTER":79.876,"MEAN_ANOMALY":280.2596,"EPHEMERIS_TYPE":0,"CLASSIFICATION_TYPE":"U","NORAD_CAT_ID":48074,"ELEMENT_SET_NO":999,"REV_AT_EPOCH":23766,"BSTAR":0.00020926958,"MEAN_MOTION_DOT":8.9e-7,"MEAN_MOTION_DDOT":0},{"OBJECT_NAME":"ONEWEB-0178","OBJECT_ID":"2021-025AK","EPOCH":"2026-02-15T05:34:43.899456","MEAN_MOTION":13.1347073,"ECCENTRICITY":0.00017935,"INCLINATION":87.9025,"RA_OF_ASC_NODE":344.4931,"ARG_OF_PERICENTER":87.8982,"MEAN_ANOMALY":272.2352,"EPHEMERIS_TYPE":0,"CLASSIFICATION_TYPE":"U","NORAD_CAT_ID":48075,"ELEMENT_SET_NO":999,"REV_AT_EPOCH":23771,"BSTAR":-0.0007885178,"MEAN_MOTION_DOT":-2.75e-6,"MEAN_MOTION_DDOT":0},{"OBJECT_NAME":"ONEWEB-0108","OBJECT_ID":"2021-025AL","EPOCH":"2026-02-15T06:25:43.269024","MEAN_MOTION":13.13470966,"ECCENTRICITY":0.00018179,"INCLINATION":87.9047,"RA_OF_ASC_NODE":344.4429,"ARG_OF_PERICENTER":72.2266,"MEAN_ANOMALY":287.9061,"EPHEMERIS_TYPE":0,"CLASSIFICATION_TYPE":"U","NORAD_CAT_ID":48076,"ELEMENT_SET_NO":999,"REV_AT_EPOCH":23764,"BSTAR":0.00096195869,"MEAN_MOTION_DOT":3.64e-6,"MEAN_MOTION_DDOT":0},{"OBJECT_NAME":"ONEWEB-0169","OBJECT_ID":"2021-025AM","EPOCH":"2026-02-15T05:22:19.717248","MEAN_MOTION":13.13471439,"ECCENTRICITY":0.00018382,"INCLINATION":87.904,"RA_OF_ASC_NODE":344.4691,"ARG_OF_PERICENTER":74.0179,"MEAN_ANOMALY":286.1152,"EPHEMERIS_TYPE":0,"CLASSIFICATION_TYPE":"U","NORAD_CAT_ID":48077,"ELEMENT_SET_NO":999,"REV_AT_EPOCH":23629,"BSTAR":-0.00030353685,"MEAN_MOTION_DOT":-9.8e-7,"MEAN_MOTION_DDOT":0},{"OBJECT_NAME":"ONEWEB-0176","OBJECT_ID":"2021-031A","EPOCH":"2026-02-15T05:43:08.465952","MEAN_MOTION":13.1450453,"ECCENTRICITY":0.0001676,"INCLINATION":87.9018,"RA_OF_ASC_NODE":314.0193,"ARG_OF_PERICENTER":81.3549,"MEAN_ANOMALY":278.777,"EPHEMERIS_TYPE":0,"CLASSIFICATION_TYPE":"U","NORAD_CAT_ID":48210,"ELEMENT_SET_NO":999,"REV_AT_EPOCH":23229,"BSTAR":-0.00029249186,"MEAN_MOTION_DOT":-9.6e-7,"MEAN_MOTION_DDOT":0},{"OBJECT_NAME":"ONEWEB-0184","OBJECT_ID":"2021-031B","EPOCH":"2026-02-15T05:04:19.147872","MEAN_MOTION":13.14504128,"ECCENTRICITY":0.00014403,"INCLINATION":87.9036,"RA_OF_ASC_NODE":314.0124,"ARG_OF_PERICENTER":106.8181,"MEAN_ANOMALY":253.3107,"EPHEMERIS_TYPE":0,"CLASSIFICATION_TYPE":"U","NORAD_CAT_ID":48211,"ELEMENT_SET_NO":999,"REV_AT_EPOCH":23226,"BSTAR":-2.0831489e-5,"MEAN_MOTION_DOT":5.0e-8,"MEAN_MOTION_DDOT":0},{"OBJECT_NAME":"ONEWEB-0179","OBJECT_ID":"2021-031C","EPOCH":"2026-02-15T06:11:41.000352","MEAN_MOTION":13.14504392,"ECCENTRICITY":0.00019689,"INCLINATION":87.9026,"RA_OF_ASC_NODE":314.0073,"ARG_OF_PERICENTER":78.3585,"MEAN_ANOMALY":281.7766,"EPHEMERIS_TYPE":0,"CLASSIFICATION_TYPE":"U","NORAD_CAT_ID":48212,"ELEMENT_SET_NO":999,"REV_AT_EPOCH":23231,"BSTAR":0.00050131093,"MEAN_MOTION_DOT":1.99e-6,"MEAN_MOTION_DDOT":0},{"OBJECT_NAME":"ONEWEB-0180","OBJECT_ID":"2021-031D","EPOCH":"2026-02-15T05:08:53.364192","MEAN_MOTION":13.14504094,"ECCENTRICITY":0.00019162,"INCLINATION":87.9032,"RA_OF_ASC_NODE":314.0168,"ARG_OF_PERICENTER":87.8998,"MEAN_ANOMALY":272.2351,"EPHEMERIS_TYPE":0,"CLASSIFICATION_TYPE":"U","NORAD_CAT_ID":48213,"ELEMENT_SET_NO":999,"REV_AT_EPOCH":23219,"BSTAR":-0.00018072209,"MEAN_MOTION_DOT":-5.4e-7,"MEAN_MOTION_DDOT":0},{"OBJECT_NAME":"ONEWEB-0218","OBJECT_ID":"2021-031E","EPOCH":"2026-02-15T05:40:51.636000","MEAN_MOTION":13.14504593,"ECCENTRICITY":0.00017659,"INCLINATION":87.9025,"RA_OF_ASC_NODE":314.0118,"ARG_OF_PERICENTER":109.5484,"MEAN_ANOMALY":250.5836,"EPHEMERIS_TYPE":0,"CLASSIFICATION_TYPE":"U","NORAD_CAT_ID":48214,"ELEMENT_SET_NO":999,"REV_AT_EPOCH":23235,"BSTAR":-0.00040141196,"MEAN_MOTION_DOT":-1.36e-6,"MEAN_MOTION_DDOT":0}]
