ONEWEB-0170             
1 48067U 21025AB  26046.27293300  .00000345  00000+0  90895-3 0  9994
2 48067  87.9041 344.4595 0001377  85.2381 274.8905 13.13471090237540
ONEWEB-0168             
1 48068U 21025AC  26046.25769133  .00000177  00000+0  44847-3 0  9994
2 48068  87.9049 344.4519 0001962  82.4999 277.6353 13.13473045237550
ONEWEB-0173             
1 48069U 21025AD  26046.24924450 -.00000079  00000+0 -25188-3 0  9999
2 48069  87.9042 344.4615 0002041  89.1298 271.0065 13.13470910237798
ONEWEB-0171             
1 48070U 21025AE  26046.21030851  .00000210  00000+0  53967-3 0  9992
2 48070  87.9038 344.4828 0001790  81.5813 278.5519 13.13469843237609
ONEWEB-0172             
1 48071U 21025AF  26046.26616774  .00000359  00000+0  94780-3 0  9994
2 48071  87.9039 344.4590 0001794  84.6924 275.4410 13.13471959238505
ONEWEB-0174             
1 48072U 21025AG  26046.24754657 -.00000115  00000+0 -34921-3 0  9999
2 48072  87.9034 344.4644 0001977  78.4289 281.7062 13.13471329237827
ONEWEB-0175             
1 48073U 21025AH  26046.27801672  .00000349  00000+0  92175-3 0  9995
2 48073  87.9046 344.4319 0001598  89.4444 270.6868 13.13471426237485
ONEWEB-0177             
1 48074U 21025AJ  26046.21369069  .00000089  00000+0  20927-3 0  9996
2 48074  87.9048 344.4652 0002011  79.8760 280.2596 13.13470968237668
ONEWEB-0178             
1 48075U 21025AK  26046.23245254 -.00000275  00000+0 -78852-3 0  9997
2 48075  87.9025 344.4931 0001793  87.8982 272.2352 13.13470730237719
ONEWEB-0108             
1 48076U 21025AL  26046.26786191  .00000364  00000+0  96196-3 0  9999
2 48076  87.9047 344.4429 0001817  72.2266 287.9061 13.13470966237649
ONEWEB-0169             
1 48077U 21025AM  26046.22383932 -.00000098  00000+0 -30354-3 0  9992
2 48077  87.9040 344.4691 0001838  74.0179 286.1152 13.13471439236298
ONEWEB-0176             
1 48210U 21031A   26046.23829243 -.00000096  00000+0 -29249-3 0  9998
2 48210  87.9018 314.0193 0001676  81.3549 278.7770 13.14504530232293
ONEWEB-0184             
1 48211U 21031B   26046.21133273  .00000005  00000+0 -20831-4 0  9996
2 48211  87.9036 314.0124 0001440 106.8181 253.3107 13.14504128232265
ONEWEB-0179             
1 48212U 21031C   26046.25811343  .00000199  00000+0  50131-3 0  9990
2 48212  87.9026 314.0073 0001968  78.3585 281.7766 13.14504392232319
ONEWEB-0180             
1 48213U 21031D   26046.21450653 -.00000054  00000+0 -18072-3 0  9990
2 48213  87.9032 314.0168 0001916  87.8998 272.2351 13.14504094232198
ONEWEB-0218             
1 48214U 21031E   26046.23670875 -.00000136  00000+0 -40141-3 0  9996
2 48214  87.9025 314.0118 0001765 109.5484 250.5836 13.14504593232359
